{
  "type": "FeatureCollection",
  "features": [
    {
      "type": "Feature",
      "properties": {
        "norad_id": 34022,
        "name": "COSMOS 2251 DEB",
        "group": "cosmos-2251-debris",
        "lat": -63.002408820798564,
        "lon": -148.507886386106,
        "alt_km": 752.8744874471186,
        "timestamp": "2025-12-26T09:30:54.033383+00:00",
        "meta_object_name": "COSMOS 2251 DEB",
        "meta_object_id": "1993-036HH",
        "meta_epoch": "2025-12-26T03:52:05.043936",
        "meta_mean_motion": 14.38981591,
        "meta_eccentricity": 0.0023091,
        "meta_inclination": 74.0534,
        "meta_ra_of_asc_node": 246.0652,
        "meta_arg_of_pericenter": 308.9146,
        "meta_mean_anomaly": 204.8914,
        "meta_ephemeris_type": 0,
        "meta_classification_type": "U",
        "meta_norad_cat_id": 34022,
        "meta_element_set_no": 999,
        "meta_rev_at_epoch": 88388,
        "meta_bstar": 0.00019101,
        "meta_mean_motion_dot": 5.65e-06,
        "meta_mean_motion_ddot": 0,
        "tle_line1": "1 34022U 93036HH  25360.16116949  .00000565  00000+0  19101-3 0  9995",
        "tle_line2": "2 34022  74.0534 246.0652 0023091 308.9146 204.8914 14.38981591883889"
      },
      "geometry": {
        "type": "Point",
        "coordinates": [
          -148.507886386106,
          -63.002408820798564
        ]
      }
    },
    {
      "type": "Feature",
      "properties": {
        "norad_id": 34023,
        "name": "COSMOS 2251 DEB",
        "group": "cosmos-2251-debris",
        "lat": -64.47054403453745,
        "lon": -170.38816052701375,
        "alt_km": 751.7159749309867,
        "timestamp": "2025-12-26T09:30:54.033394+00:00",
        "meta_object_name": "COSMOS 2251 DEB",
        "meta_object_id": "1993-036HJ",
        "meta_epoch": "2025-12-26T02:12:27.707040",
        "meta_mean_motion": 14.40585764,
        "meta_eccentricity": 0.0018934,
        "meta_inclination": 74.0237,
        "meta_ra_of_asc_node": 227.033,
        "meta_arg_of_pericenter": 320.8602,
        "meta_mean_anomaly": 191.0787,
        "meta_ephemeris_type": 0,
        "meta_classification_type": "U",
        "meta_norad_cat_id": 34023,
        "meta_element_set_no": 999,
        "meta_rev_at_epoch": 88406,
        "meta_bstar": 0.00025126,
        "meta_mean_motion_dot": 7.76e-06,
        "meta_mean_motion_ddot": 0,
        "tle_line1": "1 34023U 93036HJ  25360.09198735  .00000776  00000+0  25126-3 0  9999",
        "tle_line2": "2 34023  74.0237 227.0330 0018934 320.8602 191.0787 14.40585764884063"
      },
      "geometry": {
        "type": "Point",
        "coordinates": [
          -170.38816052701375,
          -64.47054403453745
        ]
      }
    },
    {
      "type": "Feature",
      "properties": {
        "norad_id": 34024,
        "name": "COSMOS 2251 DEB",
        "group": "cosmos-2251-debris",
        "lat": 43.66863698098933,
        "lon": -53.19104706449354,
        "alt_km": 763.675189930731,
        "timestamp": "2025-12-26T09:30:54.033405+00:00",
        "meta_object_name": "COSMOS 2251 DEB",
        "meta_object_id": "1993-036HK",
        "meta_epoch": "2025-12-25T05:24:22.584096",
        "meta_mean_motion": 14.35409875,
        "meta_eccentricity": 0.0021572,
        "meta_inclination": 74.047,
        "meta_ra_of_asc_node": 293.1089,
        "meta_arg_of_pericenter": 341.2015,
        "meta_mean_anomaly": 134.8477,
        "meta_ephemeris_type": 0,
        "meta_classification_type": "U",
        "meta_norad_cat_id": 34024,
        "meta_element_set_no": 999,
        "meta_rev_at_epoch": 88203,
        "meta_bstar": 0.00020067,
        "meta_mean_motion_dot": 5.51e-06,
        "meta_mean_motion_ddot": 0,
        "tle_line1": "1 34024U 93036HK  25359.22526139  .00000551  00000+0  20067-3 0  9996",
        "tle_line2": "2 34024  74.0470 293.1089 0021572 341.2015 134.8477 14.35409875882033"
      },
      "geometry": {
        "type": "Point",
        "coordinates": [
          -53.19104706449354,
          43.66863698098933
        ]
      }
    },
    {
      "type": "Feature",
      "properties": {
        "norad_id": 34026,
        "name": "COSMOS 2251 DEB",
        "group": "cosmos-2251-debris",
        "lat": 73.31854590869452,
        "lon": 31.035263997956612,
        "alt_km": 1028.6047539142064,
        "timestamp": "2025-12-26T09:30:54.033416+00:00",
        "meta_object_name": "COSMOS 2251 DEB",
        "meta_object_id": "1993-036HM",
        "meta_epoch": "2025-12-25T00:00:06.887808",
        "meta_mean_motion": 13.65323017,
        "meta_eccentricity": 0.0349583,
        "meta_inclination": 73.7668,
        "meta_ra_of_asc_node": 316.8973,
        "meta_arg_of_pericenter": 185.0257,
        "meta_mean_anomaly": 244.2207,
        "meta_ephemeris_type": 0,
        "meta_classification_type": "U",
        "meta_norad_cat_id": 34026,
        "meta_element_set_no": 999,
        "meta_rev_at_epoch": 83699,
        "meta_bstar": 0.00042875556,
        "meta_mean_motion_dot": 5.06e-06,
        "meta_mean_motion_ddot": 0,
        "tle_line1": "1 34026U 93036HM  25359.00007972  .00000506  00000+0  42876-3 0  9995",
        "tle_line2": "2 34026  73.7668 316.8973 0349583 185.0257 244.2207 13.65323017836998"
      },
      "geometry": {
        "type": "Point",
        "coordinates": [
          31.035263997956612,
          73.31854590869452
        ]
      }
    },
    {
      "type": "Feature",
      "properties": {
        "norad_id": 34028,
        "name": "COSMOS 2251 DEB",
        "group": "cosmos-2251-debris",
        "lat": 62.36013779599145,
        "lon": -0.1775123520756359,
        "alt_km": 830.4184978749327,
        "timestamp": "2025-12-26T09:30:54.033429+00:00",
        "meta_object_name": "COSMOS 2251 DEB",
        "meta_object_id": "1993-036HP",
        "meta_epoch": "2025-12-25T15:51:04.913856",
        "meta_mean_motion": 13.20634107,
        "meta_eccentricity": 0.0543469,
        "meta_inclination": 73.884,
        "meta_ra_of_asc_node": 327.4411,
        "meta_arg_of_pericenter": 103.0652,
        "meta_mean_anomaly": 69.802,
        "meta_ephemeris_type": 0,
        "meta_classification_type": "U",
        "meta_norad_cat_id": 34028,
        "meta_element_set_no": 999,
        "meta_rev_at_epoch": 81178,
        "meta_bstar": 0.00053402,
        "meta_mean_motion_dot": 4.55e-06,
        "meta_mean_motion_ddot": 0,
        "tle_line1": "1 34028U 93036HP  25359.66047354  .00000455  00000+0  53402-3 0  9997",
        "tle_line2": "2 34028  73.8840 327.4411 0543469 103.0652  69.8020 13.20634107811786"
      },
      "geometry": {
        "type": "Point",
        "coordinates": [
          -0.1775123520756359,
          62.36013779599145
        ]
      }
    },
    {
      "type": "Feature",
      "properties": {
        "norad_id": 34031,
        "name": "COSMOS 2251 DEB",
        "group": "cosmos-2251-debris",
        "lat": -10.253309225743099,
        "lon": 106.64972174028321,
        "alt_km": 705.5920318124245,
        "timestamp": "2025-12-26T09:30:54.033440+00:00",
        "meta_object_name": "COSMOS 2251 DEB",
        "meta_object_id": "1993-036HS",
        "meta_epoch": "2025-12-26T03:15:28.496736",
        "meta_mean_motion": 14.5984019,
        "meta_eccentricity": 0.0022838,
        "meta_inclination": 74.013,
        "meta_ra_of_asc_node": 110.1202,
        "meta_arg_of_pericenter": 230.0388,
        "meta_mean_anomaly": 189.5871,
        "meta_ephemeris_type": 0,
        "meta_classification_type": "U",
        "meta_norad_cat_id": 34031,
        "meta_element_set_no": 999,
        "meta_rev_at_epoch": 88761,
        "meta_bstar": 0.0012994,
        "meta_mean_motion_dot": 6.212e-05,
        "meta_mean_motion_ddot": 0,
        "tle_line1": "1 34031U 93036HS  25360.13574649  .00006212  00000+0  12994-2 0  9994",
        "tle_line2": "2 34031  74.0130 110.1202 0022838 230.0388 189.5871 14.59840190887612"
      },
      "geometry": {
        "type": "Point",
        "coordinates": [
          106.64972174028321,
          -10.253309225743099
        ]
      }
    },
    {
      "type": "Feature",
      "properties": {
        "norad_id": 34035,
        "name": "COSMOS 2251 DEB",
        "group": "cosmos-2251-debris",
        "lat": 45.28311365453886,
        "lon": 126.68480941727186,
        "alt_km": 746.1261211531018,
        "timestamp": "2025-12-26T09:30:54.033450+00:00",
        "meta_object_name": "COSMOS 2251 DEB",
        "meta_object_id": "1993-036HW",
        "meta_epoch": "2025-12-26T02:53:03.374880",
        "meta_mean_motion": 14.52117013,
        "meta_eccentricity": 0.0045304,
        "meta_inclination": 74.0662,
        "meta_ra_of_asc_node": 323.9736,
        "meta_arg_of_pericenter": 323.0556,
        "meta_mean_anomaly": 165.4295,
        "meta_ephemeris_type": 0,
        "meta_classification_type": "U",
        "meta_norad_cat_id": 34035,
        "meta_element_set_no": 999,
        "meta_rev_at_epoch": 88160,
        "meta_bstar": 0.0018302,
        "meta_mean_motion_dot": 7.491e-05,
        "meta_mean_motion_ddot": 0,
        "tle_line1": "1 34035U 93036HW  25360.12017795  .00007491  00000+0  18302-2 0  9990",
        "tle_line2": "2 34035  74.0662 323.9736 0045304 323.0556 165.4295 14.52117013881605"
      },
      "geometry": {
        "type": "Point",
        "coordinates": [
          126.68480941727186,
          45.28311365453886
        ]
      }
    }
  ]
}